[
  {
    "OBJECT_NAME": "STARLINK-32762",
    "OBJECT_ID": "25014P",
    "EPOCH": "2025-11-10T10:48:55.327104",
    "MEAN_MOTION": 15.2758572,
    "ECCENTRICITY": 0.0001353,
    "INCLINATION": 42.9993,
    "RA_OF_ASC_NODE": 111.0453,
    "ARG_OF_PERICENTER": 266.2039,
    "MEAN_ANOMALY": 93.8658,
    "EPHEMERIS_TYPE": 0,
    "CLASSIFICATION_TYPE": "U",
    "NORAD_CAT_ID": 62748,
    "ELEMENT_SET_NO": 999,
    "REV_AT_EPOCH": 4498,
    "BSTAR": 0.0014965,
    "MEAN_MOTION_DOT": 0.00041157,
    "MEAN_MOTION_DDOT": 0.0,
    "TLE_LINE1": "1 62748U 25014P   25314.45064036  .00041157  00000+0  14965-2 0  9996",
    "TLE_LINE2": "2 62748  42.9993 111.0453 0001353 266.2039  93.8658 15.27585720 44986",
    "COMMENT": "Grouped by shell and plane from TLE"
  },
  {
    "OBJECT_NAME": "STARLINK-34065",
    "OBJECT_ID": "25092K",
    "EPOCH": "2025-11-11T04:15:36.127008",
    "MEAN_MOTION": 15.27594975,
    "ECCENTRICITY": 0.0002214,
    "INCLINATION": 43.0038,
    "RA_OF_ASC_NODE": 117.9969,
    "ARG_OF_PERICENTER": 268.7452,
    "MEAN_ANOMALY": 91.3146,
    "EPHEMERIS_TYPE": 0,
    "CLASSIFICATION_TYPE": "U",
    "NORAD_CAT_ID": 63813,
    "ELEMENT_SET_NO": 999,
    "REV_AT_EPOCH": 3047,
    "BSTAR": 0.0013177,
    "MEAN_MOTION_DOT": 0.00036195,
    "MEAN_MOTION_DDOT": 0.0,
    "TLE_LINE1": "1 63813U 25092K   25315.17750147  .00036195  00000+0  13177-2 0  9991",
    "TLE_LINE2": "2 63813  43.0038 117.9969 0002214 268.7452  91.3146 15.27594975 30478",
    "COMMENT": "Grouped by shell and plane from TLE"
  },
  {
    "OBJECT_NAME": "STARLINK-34094",
    "OBJECT_ID": "25092U",
    "EPOCH": "2025-11-11T03:48:03.490272",
    "MEAN_MOTION": 15.27611723,
    "ECCENTRICITY": 0.0002012,
    "INCLINATION": 43.002,
    "RA_OF_ASC_NODE": 118.7288,
    "ARG_OF_PERICENTER": 280.3552,
    "MEAN_ANOMALY": 79.7073,
    "EPHEMERIS_TYPE": 0,
    "CLASSIFICATION_TYPE": "U",
    "NORAD_CAT_ID": 63822,
    "ELEMENT_SET_NO": 999,
    "REV_AT_EPOCH": 3057,
    "BSTAR": 0.0012358,
    "MEAN_MOTION_DOT": 0.00033935,
    "MEAN_MOTION_DDOT": 0.0,
    "TLE_LINE1": "1 63822U 25092U   25315.15837373  .00033935  00000+0  12358-2 0  9995",
    "TLE_LINE2": "2 63822  43.0020 118.7288 0002012 280.3552  79.7073 15.27611723 30570",
    "COMMENT": "Grouped by shell and plane from TLE"
  },
  {
    "OBJECT_NAME": "STARLINK-34043",
    "OBJECT_ID": "25092V",
    "EPOCH": "2025-11-11T03:51:32.622336",
    "MEAN_MOTION": 15.27604347,
    "ECCENTRICITY": 0.0001988,
    "INCLINATION": 43.0023,
    "RA_OF_ASC_NODE": 117.8838,
    "ARG_OF_PERICENTER": 280.0042,
    "MEAN_ANOMALY": 80.0585,
    "EPHEMERIS_TYPE": 0,
    "CLASSIFICATION_TYPE": "U",
    "NORAD_CAT_ID": 63823,
    "ELEMENT_SET_NO": 999,
    "REV_AT_EPOCH": 3053,
    "BSTAR": 0.001138,
    "MEAN_MOTION_DOT": 0.00031209,
    "MEAN_MOTION_DDOT": 0.0,
    "TLE_LINE1": "1 63823U 25092V   25315.16079424  .00031209  00000+0  11380-2 0  9998",
    "TLE_LINE2": "2 63823  43.0023 117.8838 0001988 280.0042  80.0585 15.27604347 30530",
    "COMMENT": "Grouped by shell and plane from TLE"
  },
  {
    "OBJECT_NAME": "STARLINK-35203",
    "OBJECT_ID": "25198G",
    "EPOCH": "2025-11-10T11:37:11.087040",
    "MEAN_MOTION": 15.39688248,
    "ECCENTRICITY": 9.41e-05,
    "INCLINATION": 53.1595,
    "RA_OF_ASC_NODE": 110.7739,
    "ARG_OF_PERICENTER": 32.6946,
    "MEAN_ANOMALY": 327.4117,
    "EPHEMERIS_TYPE": 0,
    "CLASSIFICATION_TYPE": "U",
    "NORAD_CAT_ID": 65498,
    "ELEMENT_SET_NO": 999,
    "REV_AT_EPOCH": 1028,
    "BSTAR": 0.0022232,
    "MEAN_MOTION_DOT": 0.0008978,
    "MEAN_MOTION_DDOT": 0.0,
    "TLE_LINE1": "1 65498U 25198G   25314.48415610  .00089780  00000+0  22232-2 0  9995",
    "TLE_LINE2": "2 65498  53.1595 110.7739 0000941  32.6946 327.4117 15.39688248 10284",
    "COMMENT": "Grouped by shell and plane from TLE"
  },
  {
    "OBJECT_NAME": "STARLINK-35119",
    "OBJECT_ID": "25198S",
    "EPOCH": "2025-11-10T11:37:35.685984",
    "MEAN_MOTION": 15.39717416,
    "ECCENTRICITY": 9.86e-05,
    "INCLINATION": 53.1591,
    "RA_OF_ASC_NODE": 110.7741,
    "ARG_OF_PERICENTER": 97.6208,
    "MEAN_ANOMALY": 262.4909,
    "EPHEMERIS_TYPE": 0,
    "CLASSIFICATION_TYPE": "U",
    "NORAD_CAT_ID": 65508,
    "ELEMENT_SET_NO": 999,
    "REV_AT_EPOCH": 1028,
    "BSTAR": 0.0022616,
    "MEAN_MOTION_DOT": 0.00091447,
    "MEAN_MOTION_DDOT": 0.0,
    "TLE_LINE1": "1 65508U 25198S   25314.48444081  .00091447  00000+0  22616-2 0  9990",
    "TLE_LINE2": "2 65508  53.1591 110.7741 0000986  97.6208 262.4909 15.39717416 10283",
    "COMMENT": "Grouped by shell and plane from TLE"
  },
  {
    "OBJECT_NAME": "STARLINK-35228",
    "OBJECT_ID": "25198AB",
    "EPOCH": "2025-11-10T10:30:17.789760",
    "MEAN_MOTION": 15.39642772,
    "ECCENTRICITY": 0.0003246,
    "INCLINATION": 53.1542,
    "RA_OF_ASC_NODE": 110.4728,
    "ARG_OF_PERICENTER": 95.3509,
    "MEAN_ANOMALY": 264.7866,
    "EPHEMERIS_TYPE": 0,
    "CLASSIFICATION_TYPE": "U",
    "NORAD_CAT_ID": 65517,
    "ELEMENT_SET_NO": 999,
    "REV_AT_EPOCH": 1028,
    "BSTAR": 0.0024240999999999998,
    "MEAN_MOTION_DOT": 0.000979,
    "MEAN_MOTION_DDOT": 0.0,
    "TLE_LINE1": "1 65517U 25198AB  25314.43770590  .00097900  00000+0  24241-2 0  9998",
    "TLE_LINE2": "2 65517  53.1542 110.4728 0003246  95.3509 264.7866 15.39642772 10281",
    "COMMENT": "Grouped by shell and plane from TLE"
  }
]